[
    {
        "Altitude(m)": 605470.7612230524,
        "Argument of Periapsis(deg)": 0.0,
        "Eccentricity": 0.0,
        "Inclination(deg)": 60.0,
        "Latitude(deg)": 27.98811271629786,
        "Longitude(deg)": -2.737114050273643,
        "Mean Anomaly(deg)": -212.7273,
        "RAAN(deg)": 295.00000000000006,
        "Satellite Name": "Test1 1307",
        "Satellite Number": 1307,
        "Semi-Major Axis(m)": 6980739.136638005,
        "Time(s)": 0
    },
    {
        "Altitude(m)": 605395.7996787295,
        "Argument of Periapsis(deg)": 0.00010418945913296404,
        "Eccentricity": 0.0,
        "Inclination(deg)": 60.0,
        "Latitude(deg)": 27.473804121712817,
        "Longitude(deg)": -2.383925250280812,
        "Mean Anomaly(deg)": -212.10719385453817,
        "RAAN(deg)": 294.99957995086027,
        "Satellite Name": "Test1 1307",
        "Satellite Number": 1307,
        "Semi-Major Axis(m)": 6980739.136638005,
        "Time(s)": 10
    },
    {
        "Altitude(m)": 605322.6407963969,
        "Argument of Periapsis(deg)": 0.0002083789182659281,
        "Eccentricity": 0.0,
        "Inclination(deg)": 60.0,
        "Latitude(deg)": 26.95834972791957,
        "Longitude(deg)": -2.0343846494356588,
        "Mean Anomaly(deg)": -211.48708770907638,
        "RAAN(deg)": 294.99915990172053,
        "Satellite Name": "Test1 1307",
        "Satellite Number": 1307,
        "Semi-Major Axis(m)": 6980739.136638005,
        "Time(s)": 20
    },
    {
        "Altitude(m)": 605251.340250335,
        "Argument of Periapsis(deg)": 0.00031256837739889213,
        "Eccentricity": 0.0,
        "Inclination(deg)": 60.0,
        "Latitude(deg)": 26.441784037388228,
        "Longitude(deg)": -1.6883875982632208,
        "Mean Anomaly(deg)": -210.86698156361453,
        "RAAN(deg)": 294.9987398525808,
        "Satellite Name": "Test1 1307",
        "Satellite Number": 1307,
        "Semi-Major Axis(m)": 6980739.136638005,
        "Time(s)": 30
    },
    {
        "Altitude(m)": 605181.9529868902,
        "Argument of Periapsis(deg)": 0.0004167578365318562,
        "Eccentricity": 0.0,
        "Inclination(deg)": 60.0,
        "Latitude(deg)": 25.924140698296537,
        "Longitude(deg)": -1.3458311797486073,
        "Mean Anomaly(deg)": -210.2468754181527,
        "RAAN(deg)": 294.99831980344106,
        "Satellite Name": "Test1 1307",
        "Satellite Number": 1307,
        "Semi-Major Axis(m)": 6980739.136638005,
        "Time(s)": 40
    },
    {
        "Altitude(m)": 605114.5331955237,
        "Argument of Periapsis(deg)": 0.0005209472956648203,
        "Eccentricity": 0.0,
        "Inclination(deg)": 60.0,
        "Latitude(deg)": 25.405452537081715,
        "Longitude(deg)": -1.0066151532144803,
        "Mean Anomaly(deg)": -209.62676927269084,
        "RAAN(deg)": 294.99789975430133,
        "Satellite Name": "Test1 1307",
        "Satellite Number": 1307,
        "Semi-Major Axis(m)": 6980739.136638005,
        "Time(s)": 50
    },
    {
        "Altitude(m)": 605049.1342801859,
        "Argument of Periapsis(deg)": 0.0006251367547977843,
        "Eccentricity": 0.0,
        "Inclination(deg)": 60.0,
        "Latitude(deg)": 24.885751589879025,
        "Longitude(deg)": -0.6706413861248652,
        "Mean Anomaly(deg)": -209.00666312722907,
        "RAAN(deg)": 294.99747970516154,
        "Satellite Name": "Test1 1307",
        "Satellite Number": 1307,
        "Semi-Major Axis(m)": 6980739.136638005,
        "Time(s)": 60
    },
    {
        "Altitude(m)": 604985.8088310454,
        "Argument of Periapsis(deg)": 0.0007293262139307483,
        "Eccentricity": 0.0,
        "Inclination(deg)": 60.0,
        "Latitude(deg)": 24.36506913288316,
        "Longitude(deg)": -0.3378132867459827,
        "Mean Anomaly(deg)": -208.38655698176717,
        "RAAN(deg)": 294.99705965602186,
        "Satellite Name": "Test1 1307",
        "Satellite Number": 1307,
        "Semi-Major Axis(m)": 6980739.136638005,
        "Time(s)": 70
    },
    {
        "Altitude(m)": 604924.6085965682,
        "Argument of Periapsis(deg)": 0.0008335156730637124,
        "Eccentricity": 0.0,
        "Inclination(deg)": 60.0,
        "Latitude(deg)": 23.843435711667464,
        "Longitude(deg)": -0.008036750584523687,
        "Mean Anomaly(deg)": -207.76645083630538,
        "RAAN(deg)": 294.9966396068821,
        "Satellite Name": "Test1 1307",
        "Satellite Number": 1307,
        "Semi-Major Axis(m)": 6980739.136638005,
        "Time(s)": 80
    },
    {
        "Altitude(m)": 604865.584455967,
        "Argument of Periapsis(deg)": 0.0009377051321966765,
        "Eccentricity": 0.0,
        "Inclination(deg)": 60.0,
        "Latitude(deg)": 23.32088116950485,
        "Longitude(deg)": 0.31878040510081135,
        "Mean Anomaly(deg)": -207.14634469084353,
        "RAAN(deg)": 294.99621955774234,
        "Satellite Name": "Test1 1307",
        "Satellite Number": 1307,
        "Semi-Major Axis(m)": 6980739.136638005,
        "Time(s)": 90
    },
    {
        "Altitude(m)": 604808.7863920355,
        "Argument of Periapsis(deg)": 0.0010418945913296407,
        "Eccentricity": 0.0,
        "Inclination(deg)": 60.0,
        "Latitude(deg)": 22.797434674723377,
        "Longitude(deg)": 0.6427290058135507,
        "Mean Anomaly(deg)": -206.5262385453817,
        "RAAN(deg)": 294.99579950860254,
        "Satellite Name": "Test1 1307",
        "Satellite Number": 1307,
        "Semi-Major Axis(m)": 6980739.136638005,
        "Time(s)": 100
    },
    {
        "Altitude(m)": 604754.2634643841,
        "Argument of Periapsis(deg)": 0.0011460840504626045,
        "Eccentricity": 0.0,
        "Inclination(deg)": 60.0,
        "Latitude(deg)": 22.273124747130083,
        "Longitude(deg)": 0.9638975704587782,
        "Mean Anomaly(deg)": -205.90613239991987,
        "RAAN(deg)": 294.99537945946287,
        "Satellite Name": "Test1 1307",
        "Satellite Number": 1307,
        "Semi-Major Axis(m)": 6980739.136638005,
        "Time(s)": 110
    },
    {
        "Altitude(m)": 604702.0637830971,
        "Argument of Periapsis(deg)": 0.0012502735095955685,
        "Eccentricity": 0.0,
        "Inclination(deg)": 60.0,
        "Latitude(deg)": 21.74797928354379,
        "Longitude(deg)": 1.282372873838726,
        "Mean Anomaly(deg)": -205.28602625445802,
        "RAAN(deg)": 294.9949594103231,
        "Satellite Name": "Test1 1307",
        "Satellite Number": 1307,
        "Semi-Major Axis(m)": 6980739.136638005,
        "Time(s)": 120
    },
    {
        "Altitude(m)": 604652.2344828094,
        "Argument of Periapsis(deg)": 0.0013544629687285324,
        "Eccentricity": 0.0,
        "Inclination(deg)": 60.0,
        "Latitude(deg)": 21.22202558246798,
        "Longitude(deg)": 1.5982405081188826,
        "Mean Anomaly(deg)": -204.66592010899623,
        "RAAN(deg)": 294.99453936118334,
        "Satellite Name": "Test1 1307",
        "Satellite Number": 1307,
        "Semi-Major Axis(m)": 6980739.136638005,
        "Time(s)": 130
    },
    {
        "Altitude(m)": 604604.8216972211,
        "Argument of Periapsis(deg)": 0.0014586524278614966,
        "Eccentricity": 0.0,
        "Inclination(deg)": 60.0,
        "Latitude(deg)": 20.695290367934447,
        "Longitude(deg)": 1.9115839303851099,
        "Mean Anomaly(deg)": -204.04581396353439,
        "RAAN(deg)": 294.9941193120436,
        "Satellite Name": "Test1 1307",
        "Satellite Number": 1307,
        "Semi-Major Axis(m)": 6980739.136638005,
        "Time(s)": 140
    },
    {
        "Altitude(m)": 604559.870534095,
        "Argument of Periapsis(deg)": 0.0015628418869944607,
        "Eccentricity": 0.0,
        "Inclination(deg)": 60.0,
        "Latitude(deg)": 20.16779981255595,
        "Longitude(deg)": 2.222485022036043,
        "Mean Anomaly(deg)": -203.42570781807254,
        "RAAN(deg)": 294.9936992629039,
        "Satellite Name": "Test1 1307",
        "Satellite Number": 1307,
        "Semi-Major Axis(m)": 6980739.136638005,
        "Time(s)": 150
    },
    {
        "Altitude(m)": 604517.4250506889,
        "Argument of Periapsis(deg)": 0.0016670313461274247,
        "Eccentricity": 0.0,
        "Inclination(deg)": 60.0,
        "Latitude(deg)": 19.639579559816227,
        "Longitude(deg)": 2.531024647140842,
        "Mean Anomaly(deg)": -202.80560167261072,
        "RAAN(deg)": 294.99327921376414,
        "Satellite Name": "Test1 1307",
        "Satellite Number": 1307,
        "Semi-Major Axis(m)": 6980739.136638005,
        "Time(s)": 160
    },
    {
        "Altitude(m)": 604477.5282297019,
        "Argument of Periapsis(deg)": 0.0017712208052603888,
        "Eccentricity": 0.0,
        "Inclination(deg)": 60.0,
        "Latitude(deg)": 19.110654745626007,
        "Longitude(deg)": 2.8372816968942676,
        "Mean Anomaly(deg)": -202.18549552714893,
        "RAAN(deg)": 294.9928591646244,
        "Satellite Name": "Test1 1307",
        "Satellite Number": 1307,
        "Semi-Major Axis(m)": 6980739.136638005,
        "Time(s)": 170
    },
    {
        "Altitude(m)": 604440.2219556962,
        "Argument of Periapsis(deg)": 0.001875410264393353,
        "Eccentricity": 0.0,
        "Inclination(deg)": 60.0,
        "Latitude(deg)": 18.58105001917944,
        "Longitude(deg)": 3.1413336459256476,
        "Mean Anomaly(deg)": -201.56538938168705,
        "RAAN(deg)": 294.9924391154846,
        "Satellite Name": "Test1 1307",
        "Satellite Number": 1307,
        "Semi-Major Axis(m)": 6980739.136638005,
        "Time(s)": 180
    },
    {
        "Altitude(m)": 604405.5469920449,
        "Argument of Periapsis(deg)": 0.0019795997235263173,
        "Eccentricity": 0.0,
        "Inclination(deg)": 60.0,
        "Latitude(deg)": 18.050789563138885,
        "Longitude(deg)": 3.4432571076005507,
        "Mean Anomaly(deg)": -200.94528323622527,
        "RAAN(deg)": 294.99201906634494,
        "Satellite Name": "Test1 1307",
        "Satellite Number": 1307,
        "Semi-Major Axis(m)": 6980739.136638005,
        "Time(s)": 190
    }
]